COMMENT,ORIGINATOR,NORAD_CAT_ID,OBJECT_NAME,OBJECT_TYPE,CLASSIFICATION_TYPE,INTLDES,EPOCH,EPOCH_MICROSECONDS,MEAN_MOTION,ECCENTRICITY,INCLINATION,RA_OF_ASC_NODE,ARG_OF_PERICENTER,MEAN_ANOMALY,EPHEMERIS_TYPE,ELEMENT_SET_NO,REV_AT_EPOCH,BSTAR,MEAN_MOTION_DOT,MEAN_MOTION_DDOT,FILE,TLE_LINE0,TLE_LINE1,TLE_LINE2,OBJECT_ID,OBJECT_NUMBER,SEMIMAJOR_AXIS,PERIOD,APOGEE,PERIGEE,DECAYED,date
GENERATED VIA SPACETRACK.ORG API,18 SPCS,48890,SPACEBEE-104,PAYLOAD,U,21059M,2023/3/21 8:15,36896,15.25987361,0.00081,97.5817,215.5293,223.3081,136.7521,0,999,9597,0.0015162,0.00039097,0,3866730,0 SPACEBEE-104,1 48890U 21059M   23080.34390089  .00039097  00000-0  15162-2 0  9990,2 48890  97.5817 215.5293 0008100 223.3081 136.7521 15.25987361 95975,2021-059M,48890,6865.959,94.365,493.386,482.263,0,
GENERATED VIA SPACETRACK.ORG API,18 SPCS,48890,SPACEBEE-104,PAYLOAD,U,21059M,2023/3/22 3:08,97728,15.26049571,0.0008089,97.5818,216.3272,220.9924,139.0707,0,999,9609,0.0015885,0.00041052,0,3867095,0 SPACEBEE-104,1 48890U 21059M   23081.13076502  .00041052  00000-0  15885-2 0  9995,2 48890  97.5818 216.3272 0008089 220.9924 139.0707 15.26049571 96096,2021-059M,48890,6865.773,94.361,493.191,482.084,0,
GENERATED VIA SPACETRACK.ORG API,18 SPCS,48890,SPACEBEE-104,PAYLOAD,U,21059M,2023/3/22 22:01,169984,15.26118443,0.0008079,97.5823,217.1252,218.3229,141.7436,0,999,9621,0.0016002,0.00041443,0,3868201,0 SPACEBEE-104,1 48890U 21059M   23081.91759456  .00041443  00000-0  16002-2 0  9993,2 48890  97.5823 217.1252 0008079 218.3229 141.7436 15.26118443 96215,2021-059M,48890,6865.566,94.357,492.978,481.884,0,
GENERATED VIA SPACETRACK.ORG API,18 SPCS,48890,SPACEBEE-104,PAYLOAD,U,21059M,2023/3/23 9:02,31104,15.26153137,0.0008059,97.5825,217.5909,216.3951,143.674,0,999,9628,0.0013967,0.00036175,0,3868329,0 SPACEBEE-104,1 48890U 21059M   23082.37656286  .00036175  00000-0  13967-2 0  9994,2 48890  97.5825 217.5909 0008059 216.3951 143.6740 15.26153137 96283,2021-059M,48890,6865.462,94.355,492.86,481.794,0,
GENERATED VIA SPACETRACK.ORG API,18 SPCS,48890,SPACEBEE-104,PAYLOAD,U,21059M,2023/3/23 9:02,31104,15.26153137,0.0008059,97.5825,217.5909,216.3951,143.674,0,999,9628,0.0013967,0.00036175,0,3868494,0 SPACEBEE-104,1 48890U 21059M   23082.37656286  .00036175  00000-0  13967-2 0  9994,2 48890  97.5825 217.5909 0008059 216.3951 143.6740 15.26153137 96283,2021-059M,48890,6865.462,94.355,492.86,481.794,0,
GENERATED VIA SPACETRACK.ORG API,18 SPCS,48890,SPACEBEE-104,PAYLOAD,U,21059M,2023/3/23 21:37,437280,15.26216532,0.0008045,97.5826,218.123,214.6413,145.4302,0,999,9636,0.0021477,0.0005592,0,3868816,0 SPACEBEE-104,1 48890U 21059M   23082.90108145  .00055920  00000-0  21477-2 0  9993,2 48890  97.5826 218.1230 0008045 214.6413 145.4302 15.26216532 96369,2021-059M,48890,6865.272,94.351,492.66,481.614,0,
GENERATED VIA SPACETRACK.ORG API,18 SPCS,48890,SPACEBEE-104,PAYLOAD,U,21059M,2023/3/23 21:37,437280,15.26216532,0.0008045,97.5826,218.123,214.6413,145.4302,0,999,9636,0.0021477,0.0005592,0,3868957,0 SPACEBEE-104,1 48890U 21059M   23082.90108145  .00055920  00000-0  21477-2 0  9993,2 48890  97.5826 218.1230 0008045 214.6413 145.4302 15.26216532 96369,2021-059M,48890,6865.272,94.351,492.66,481.614,0,
GENERATED VIA SPACETRACK.ORG API,18 SPCS,48890,SPACEBEE-104,PAYLOAD,U,21059M,2023/3/24 7:04,833376,15.26321926,0.000801,97.5826,218.5221,213.3483,146.7251,0,999,9642,0.0050434,0.00133199,0,3869235,0 SPACEBEE-104,1 48890U 21059M   23083.29445409  .00133199  00000-0  50434-2 0  9993,2 48890  97.5826 218.5221 0008010 213.3483 146.7251 15.26321926 96426,2021-059M,48890,6864.956,94.344,492.32,481.322,0,
GENERATED VIA SPACETRACK.ORG API,18 SPCS,48890,SPACEBEE-104,PAYLOAD,U,21059M,2023/3/24 8:38,505088,15.26312833,0.000801,97.5826,218.5883,213.1284,146.9453,0,999,9643,0.0062559,0.00165919,0,3869433,0 SPACEBEE-104,1 48890U 21059M   23083.36001742  .00165919  00000-0  62559-2 0  9995,2 48890  97.5826 218.5883 0008010 213.1284 146.9453 15.26312833 96431,2021-059M,48890,6864.983,94.345,492.347,481.349,0,
GENERATED VIA SPACETRACK.ORG API,18 SPCS,48890,SPACEBEE-104,PAYLOAD,U,21059M,2023/3/24 8:38,505088,15.26312833,0.000801,97.5826,218.5883,213.1284,146.9453,0,999,9643,0.0062559,0.00165919,0,3869846,0 SPACEBEE-104,1 48890U 21059M   23083.36001742  .00165919  00000-0  62559-2 0  9995,2 48890  97.5826 218.5883 0008010 213.1284 146.9453 15.26312833 96431,2021-059M,48890,6864.983,94.345,492.347,481.349,0,
GENERATED VIA SPACETRACK.ORG API,18 SPCS,48890,SPACEBEE-104,PAYLOAD,U,21059M,2023/3/24 21:13,89792,15.26335641,0.0008054,97.5827,219.121,211.8407,148.2345,0,999,9651,0.0015984,0.00041669,0,3869912,0 SPACEBEE-104,1 48890U 21059M   23083.88449178  .00041669  00000-0  15984-2 0  9996,2 48890  97.5827 219.1210 0008054 211.8407 148.2345 15.26335641 96519,2021-059M,48890,6864.915,94.344,492.309,481.251,0,
GENERATED VIA SPACETRACK.ORG API,18 SPCS,48890,SPACEBEE-104,PAYLOAD,U,21059M,2023/3/24 21:13,89792,15.26335641,0.0008054,97.5827,219.121,211.8407,148.2345,0,999,9651,0.0015984,0.00041669,0,3870109,0 SPACEBEE-104,1 48890U 21059M   23083.88449178  .00041669  00000-0  15984-2 0  9996,2 48890  97.5827 219.1210 0008054 211.8407 148.2345 15.26335641 96519,2021-059M,48890,6864.915,94.344,492.309,481.251,0,
GENERATED VIA SPACETRACK.ORG API,18 SPCS,48890,SPACEBEE-104,PAYLOAD,U,21059M,2023/3/25 20:49,314656,15.2642239,0.000793,97.5825,220.1183,209.3355,150.7439,0,999,9666,0.0017032,0.00044538,0,3871104,0 SPACEBEE-104,1 48890U 21059M   23084.86783929  .00044538  00000-0  17032-2 0  9994,2 48890  97.5825 220.1183 0007930 209.3355 150.7439 15.26422390 96660,2021-059M,48890,6864.655,94.338,491.963,481.076,0,
GENERATED VIA SPACETRACK.ORG API,18 SPCS,48890,SPACEBEE-104,PAYLOAD,U,21059M,2023/3/26 7:50,280544,15.26460389,0.0008094,97.5826,220.5837,207.2662,152.8152,0,999,9673,0.0015914,0.00041642,0,3871549,0 SPACEBEE-104,1 48890U 21059M   23085.32671621  .00041642  00000-0  15914-2 0  9991,2 48890  97.5826 220.5837 0008094 207.2662 152.8152 15.26460389 96734,2021-059M,48890,6864.541,94.336,491.962,480.85,0,
GENERATED VIA SPACETRACK.ORG API,18 SPCS,48890,SPACEBEE-104,PAYLOAD,U,21059M,2023/3/26 22:00,665216,15.26502738,0.0008041,97.5826,221.183,205.2858,154.7988,0,999,9682,0.0014563,0.00038131,0,3871964,0 SPACEBEE-104,1 48890U 21059M   23085.91668594  .00038131  00000-0  14563-2 0  9999,2 48890  97.5826 221.1830 0008041 205.2858 154.7988 15.26502738 96824,2021-059M,48890,6864.414,94.333,491.798,480.759,0,
GENERATED VIA SPACETRACK.ORG API,18 SPCS,48890,SPACEBEE-104,PAYLOAD,U,21059M,2023/3/27 9:00,517760,15.26540795,0.0008024,97.5827,221.6491,203.332,156.7555,0,999,9689,0.0015063,0.00039495,0,3872401,0 SPACEBEE-104,1 48890U 21059M   23086.37553840  .00039495  00000-0  15063-2 0  9997,2 48890  97.5827 221.6491 0008024 203.3320 156.7555 15.26540795 96891,2021-059M,48890,6864.3,94.331,491.673,480.657,0,
GENERATED VIA SPACETRACK.ORG API,18 SPCS,48890,SPACEBEE-104,PAYLOAD,U,21059M,2023/3/27 9:00,517760,15.26540795,0.0008024,97.5827,221.6491,203.332,156.7555,0,999,9689,0.0015063,0.00039495,0,3872569,0 SPACEBEE-104,1 48890U 21059M   23086.37553840  .00039495  00000-0  15063-2 0  9997,2 48890  97.5827 221.6491 0008024 203.3320 156.7555 15.26540795 96891,2021-059M,48890,6864.3,94.331,491.673,480.657,0,
GENERATED VIA SPACETRACK.ORG API,18 SPCS,48890,SPACEBEE-104,PAYLOAD,U,21059M,2023/3/27 21:35,787840,15.26580337,0.0008035,97.5828,222.1815,201.7752,158.3145,0,999,9697,0.0014103,0.00037005,0,3872915,0 SPACEBEE-104,1 48890U 21059M   23086.89992810  .00037005  00000-0  14103-2 0  9997,2 48890  97.5828 222.1815 0008035 201.7752 158.3145 15.26580337 96979,2021-059M,48890,6864.181,94.328,491.561,480.531,0,
GENERATED VIA SPACETRACK.ORG API,18 SPCS,48890,SPACEBEE-104,PAYLOAD,U,21059M,2023/3/28 8:36,628128,15.26617961,0.0008047,97.5826,222.6474,200.3646,159.7273,0,999,9704,0.0015054,0.00039564,0,3873565,0 SPACEBEE-104,1 48890U 21059M   23087.35875727  .00039564  00000-0  15054-2 0  9994,2 48890  97.5826 222.6474 0008047 200.3646 159.7273 15.26617961 97043,2021-059M,48890,6864.068,94.326,491.457,480.41,0,
GENERATED VIA SPACETRACK.ORG API,18 SPCS,48890,SPACEBEE-104,PAYLOAD,U,21059M,2023/3/28 21:11,479872,15.26665324,0.0008031,97.5826,223.1799,198.5831,161.5115,0,999,9712,0.0016155,0.00042541,0,3873921,0 SPACEBEE-104,1 48890U 21059M   23087.88311898  .00042541  00000-0  16155-2 0  9998,2 48890  97.5826 223.1799 0008031 198.5831 161.5115 15.26665324 97127,2021-059M,48890,6863.926,94.323,491.304,480.279,0,
GENERATED VIA SPACETRACK.ORG API,18 SPCS,48890,SPACEBEE-104,PAYLOAD,U,21059M,2023/3/28 22:46,498752,15.26670435,0.0008015,97.5822,223.2464,198.4613,161.6336,0,999,9713,0.0016136,0.00042497,0,3873709,0 SPACEBEE-104,1 48890U 21059M   23087.94866318  .00042497  00000-0  16136-2 0  9996,2 48890  97.5822 223.2464 0008015 198.4613 161.6336 15.26670435 97138,2021-059M,48890,6863.911,94.323,491.277,480.275,0,
GENERATED VIA SPACETRACK.ORG API,18 SPCS,48890,SPACEBEE-104,PAYLOAD,U,21059M,2023/3/29 8:12,131648,15.26705286,0.0008014,97.5823,223.6457,197.2338,162.863,0,999,9719,0.001668,0.00043987,0,3874492,0 SPACEBEE-104,1 48890U 21059M   23088.34192282  .00043987  00000-0  16680-2 0  9992,2 48890  97.5823 223.6457 0008014 197.2338 162.8630 15.26705286 97194,2021-059M,48890,6863.807,94.321,491.172,480.171,0,
GENERATED VIA SPACETRACK.ORG API,18 SPCS,48890,SPACEBEE-104,PAYLOAD,U,21059M,2023/3/30 7:48,753568,15.26795924,0.0008008,97.5821,224.6442,194.1387,165.9629,0,999,9734,0.0017685,0.00046787,0,3875230,0 SPACEBEE-104,1 48890U 21059M   23089.32503187  .00046787  00000-0  17685-2 0  9998,2 48890  97.5821 224.6442 0008008 194.1387 165.9629 15.26795924 97347,2021-059M,48890,6863.535,94.315,490.896,479.904,0,
